[{"OBJECT_NAME":"ONEWEB-0170","OBJECT_ID":"2021-025AB","EPOCH":"2025-12-19T10:53:57.003072","MEAN_MOTION":13.13472621,"ECCENTRICITY":0.0002073,"INCLINATION":87.8976,"RA_OF_ASC_NODE":355.9466,"ARG_OF_PERICENTER":80.0007,"MEAN_ANOMALY":280.1356,"EPHEMERIS_TYPE":0,"CLASSIFICATION_TYPE":"U","NORAD_CAT_ID":48067,"ELEMENT_SET_NO":999,"REV_AT_EPOCH":22995,"BSTAR":0.00058185,"MEAN_MOTION_DOT":2.25e-6,"MEAN_MOTION_DDOT":0},{"OBJECT_NAME":"ONEWEB-0168","OBJECT_ID":"2021-025AC","EPOCH":"2025-12-20T01:09:34.791840","MEAN_MOTION":13.13471183,"ECCENTRICITY":0.00015835,"INCLINATION":87.8987,"RA_OF_ASC_NODE":355.8139,"ARG_OF_PERICENTER":90.2144,"MEAN_ANOMALY":269.9166,"EPHEMERIS_TYPE":0,"CLASSIFICATION_TYPE":"U","NORAD_CAT_ID":48068,"ELEMENT_SET_NO":999,"REV_AT_EPOCH":23004,"BSTAR":-0.0011317404,"MEAN_MOTION_DOT":-4.01e-6,"MEAN_MOTION_DDOT":0},{"OBJECT_NAME":"ONEWEB-0173","OBJECT_ID":"2021-025AD","EPOCH":"2025-12-20T00:57:23.465952","MEAN_MOTION":13.13469713,"ECCENTRICITY":0.00014213,"INCLINATION":87.8986,"RA_OF_ASC_NODE":355.8236,"ARG_OF_PERICENTER":82.8123,"MEAN_ANOMALY":277.3168,"EPHEMERIS_TYPE":0,"CLASSIFICATION_TYPE":"U","NORAD_CAT_ID":48069,"ELEMENT_SET_NO":999,"REV_AT_EPOCH":23028,"BSTAR":-0.0014441651,"MEAN_MOTION_DOT":-5.15e-6,"MEAN_MOTION_DDOT":0},{"OBJECT_NAME":"ONEWEB-0171","OBJECT_ID":"2021-025AE","EPOCH":"2025-12-20T00:01:20.623296","MEAN_MOTION":13.13471675,"ECCENTRICITY":0.0001744,"INCLINATION":87.897,"RA_OF_ASC_NODE":355.8523,"ARG_OF_PERICENTER":85.7064,"MEAN_ANOMALY":274.4265,"EPHEMERIS_TYPE":0,"CLASSIFICATION_TYPE":"U","NORAD_CAT_ID":48070,"ELEMENT_SET_NO":999,"REV_AT_EPOCH":23009,"BSTAR":0.00094643,"MEAN_MOTION_DOT":3.58e-6,"MEAN_MOTION_DDOT":0},{"OBJECT_NAME":"ONEWEB-0172","OBJECT_ID":"2021-025AF","EPOCH":"2025-12-20T01:21:46.053792","MEAN_MOTION":13.13472381,"ECCENTRICITY":0.00016352,"INCLINATION":87.8986,"RA_OF_ASC_NODE":355.8245,"ARG_OF_PERICENTER":84.6275,"MEAN_ANOMALY":275.5041,"EPHEMERIS_TYPE":0,"CLASSIFICATION_TYPE":"U","NORAD_CAT_ID":48071,"ELEMENT_SET_NO":999,"REV_AT_EPOCH":23099,"BSTAR":-0.00028969707,"MEAN_MOTION_DOT":-9.3e-7,"MEAN_MOTION_DDOT":0},{"OBJECT_NAME":"ONEWEB-0174","OBJECT_ID":"2021-025AG","EPOCH":"2025-12-20T00:54:57.380832","MEAN_MOTION":13.13468501,"ECCENTRICITY":0.0001664,"INCLINATION":87.8975,"RA_OF_ASC_NODE":355.8319,"ARG_OF_PERICENTER":93.9351,"MEAN_ANOMALY":266.1968,"EPHEMERIS_TYPE":0,"CLASSIFICATION_TYPE":"U","NORAD_CAT_ID":48072,"ELEMENT_SET_NO":999,"REV_AT_EPOCH":23031,"BSTAR":-0.0012326278,"MEAN_MOTION_DOT":-4.37e-6,"MEAN_MOTION_DDOT":0},{"OBJECT_NAME":"ONEWEB-0175","OBJECT_ID":"2021-025AH","EPOCH":"2025-12-19T23:49:08.514624","MEAN_MOTION":13.13472447,"ECCENTRICITY":0.000183,"INCLINATION":87.8984,"RA_OF_ASC_NODE":355.8104,"ARG_OF_PERICENTER":77.1408,"MEAN_ANOMALY":282.9925,"EPHEMERIS_TYPE":0,"CLASSIFICATION_TYPE":"U","NORAD_CAT_ID":48073,"ELEMENT_SET_NO":999,"REV_AT_EPOCH":22996,"BSTAR":0.00067769,"MEAN_MOTION_DOT":2.6e-6,"MEAN_MOTION_DDOT":0},{"OBJECT_NAME":"ONEWEB-0177","OBJECT_ID":"2021-025AJ","EPOCH":"2025-12-20T01:55:54.958944","MEAN_MOTION":13.13470947,"ECCENTRICITY":0.00015598,"INCLINATION":87.8986,"RA_OF_ASC_NODE":355.8126,"ARG_OF_PERICENTER":93.0948,"MEAN_ANOMALY":267.036,"EPHEMERIS_TYPE":0,"CLASSIFICATION_TYPE":"U","NORAD_CAT_ID":48074,"ELEMENT_SET_NO":999,"REV_AT_EPOCH":23016,"BSTAR":0.00087651775,"MEAN_MOTION_DOT":3.33e-6,"MEAN_MOTION_DDOT":0},{"OBJECT_NAME":"ONEWEB-0178","OBJECT_ID":"2021-025AK","EPOCH":"2025-12-20T00:33:13.360320","MEAN_MOTION":13.13470545,"ECCENTRICITY":0.00015914,"INCLINATION":87.8972,"RA_OF_ASC_NODE":355.8643,"ARG_OF_PERICENTER":81.0361,"MEAN_ANOMALY":279.0948,"EPHEMERIS_TYPE":0,"CLASSIFICATION_TYPE":"U","NORAD_CAT_ID":48075,"ELEMENT_SET_NO":999,"REV_AT_EPOCH":23020,"BSTAR":-0.00036303363,"MEAN_MOTION_DOT":-1.2e-6,"MEAN_MOTION_DDOT":0},{"OBJECT_NAME":"ONEWEB-0108","OBJECT_ID":"2021-025AL","EPOCH":"2025-12-20T01:24:14.030208","MEAN_MOTION":13.13471869,"ECCENTRICITY":0.00019198,"INCLINATION":87.8982,"RA_OF_ASC_NODE":355.8066,"ARG_OF_PERICENTER":94.9645,"MEAN_ANOMALY":265.1704,"EPHEMERIS_TYPE":0,"CLASSIFICATION_TYPE":"U","NORAD_CAT_ID":48076,"ELEMENT_SET_NO":999,"REV_AT_EPOCH":23013,"BSTAR":-2.1727354e-5,"MEAN_MOTION_DOT":5.0e-8,"MEAN_MOTION_DDOT":0},{"OBJECT_NAME":"ONEWEB-0169","OBJECT_ID":"2021-025AM","EPOCH":"2025-12-20T00:20:50.836992","MEAN_MOTION":13.13468421,"ECCENTRICITY":0.00018889,"INCLINATION":87.8978,"RA_OF_ASC_NODE":355.836,"ARG_OF_PERICENTER":95.1411,"MEAN_ANOMALY":264.9934,"EPHEMERIS_TYPE":0,"CLASSIFICATION_TYPE":"U","NORAD_CAT_ID":48077,"ELEMENT_SET_NO":999,"REV_AT_EPOCH":22878,"BSTAR":0.00024300624,"MEAN_MOTION_DOT":1.01e-6,"MEAN_MOTION_DDOT":0},{"OBJECT_NAME":"ONEWEB-0176","OBJECT_ID":"2021-031A","EPOCH":"2025-12-19T23:56:42.973440","MEAN_MOTION":13.14500254,"ECCENTRICITY":0.00017724,"INCLINATION":87.8995,"RA_OF_ASC_NODE":325.4011,"ARG_OF_PERICENTER":81.2186,"MEAN_ANOMALY":278.9145,"EPHEMERIS_TYPE":0,"CLASSIFICATION_TYPE":"U","NORAD_CAT_ID":48210,"ELEMENT_SET_NO":999,"REV_AT_EPOCH":22477,"BSTAR":0.00059523713,"MEAN_MOTION_DOT":2.33e-6,"MEAN_MOTION_DDOT":0},{"OBJECT_NAME":"ONEWEB-0184","OBJECT_ID":"2021-031B","EPOCH":"2025-12-19T21:28:17.472288","MEAN_MOTION":13.14503298,"ECCENTRICITY":0.0001987,"INCLINATION":87.9011,"RA_OF_ASC_NODE":325.4025,"ARG_OF_PERICENTER":55.1391,"MEAN_ANOMALY":304.9926,"EPHEMERIS_TYPE":0,"CLASSIFICATION_TYPE":"U","NORAD_CAT_ID":48211,"ELEMENT_SET_NO":999,"REV_AT_EPOCH":22473,"BSTAR":2.652e-5,"MEAN_MOTION_DOT":2.3e-7,"MEAN_MOTION_DDOT":0},{"OBJECT_NAME":"ONEWEB-0179","OBJECT_ID":"2021-031C","EPOCH":"2025-12-19T22:35:39.914016","MEAN_MOTION":13.14502607,"ECCENTRICITY":0.0001577,"INCLINATION":87.9006,"RA_OF_ASC_NODE":325.4015,"ARG_OF_PERICENTER":89.0263,"MEAN_ANOMALY":271.1048,"EPHEMERIS_TYPE":0,"CLASSIFICATION_TYPE":"U","NORAD_CAT_ID":48212,"ELEMENT_SET_NO":999,"REV_AT_EPOCH":22478,"BSTAR":-0.00035006,"MEAN_MOTION_DOT":-1.17e-6,"MEAN_MOTION_DDOT":0},{"OBJECT_NAME":"ONEWEB-0180","OBJECT_ID":"2021-031D","EPOCH":"2025-12-20T04:51:17.680608","MEAN_MOTION":13.14504112,"ECCENTRICITY":0.00014913,"INCLINATION":87.9007,"RA_OF_ASC_NODE":325.3475,"ARG_OF_PERICENTER":78.2781,"MEAN_ANOMALY":281.8516,"EPHEMERIS_TYPE":0,"CLASSIFICATION_TYPE":"U","NORAD_CAT_ID":48213,"ELEMENT_SET_NO":999,"REV_AT_EPOCH":22470,"BSTAR":-0.0001165748,"MEAN_MOTION_DOT":-3.0e-7,"MEAN_MOTION_DDOT":0},{"OBJECT_NAME":"ONEWEB-0218","OBJECT_ID":"2021-031E","EPOCH":"2025-12-20T05:23:16.541664","MEAN_MOTION":13.14503793,"ECCENTRICITY":0.00017051,"INCLINATION":87.9007,"RA_OF_ASC_NODE":325.3437,"ARG_OF_PERICENTER":53.1594,"MEAN_ANOMALY":306.9692,"EPHEMERIS_TYPE":0,"CLASSIFICATION_TYPE":"U","NORAD_CAT_ID":48214,"ELEMENT_SET_NO":999,"REV_AT_EPOCH":22486,"BSTAR":0.00074929359,"MEAN_MOTION_DOT":2.91e-6,"MEAN_MOTION_DDOT":0}]
