ONEWEB-0170             
1 48067U 21025AB  25353.45413198  .00000225  00000+0  58185-3 0  9996
2 48067  87.8976 355.9466 0002073  80.0007 280.1356 13.13472621229959
ONEWEB-0168             
1 48068U 21025AC  25354.04831935 -.00000401  00000+0 -11317-2 0  9999
2 48068  87.8987 355.8139 0001583  90.2144 269.9166 13.13471183230046
ONEWEB-0173             
1 48069U 21025AD  25354.03985493 -.00000515  00000+0 -14442-2 0  9996
2 48069  87.8986 355.8236 0001421  82.8123 277.3168 13.13469713230286
ONEWEB-0171             
1 48070U 21025AE  25354.00093314  .00000358  00000+0  94643-3 0  9992
2 48070  87.8970 355.8523 0001744  85.7064 274.4265 13.13471675230099
ONEWEB-0172             
1 48071U 21025AF  25354.05678303 -.00000093  00000+0 -28970-3 0  9993
2 48071  87.8986 355.8245 0001635  84.6275 275.5041 13.13472381230997
ONEWEB-0174             
1 48072U 21025AG  25354.03816413 -.00000437  00000+0 -12326-2 0  9997
2 48072  87.8975 355.8319 0001664  93.9351 266.1968 13.13468501230317
ONEWEB-0175             
1 48073U 21025AH  25353.99245966  .00000260  00000+0  67769-3 0  9995
2 48073  87.8984 355.8104 0001830  77.1408 282.9925 13.13472447229964
ONEWEB-0177             
1 48074U 21025AJ  25354.08049721  .00000333  00000+0  87652-3 0  9992
2 48074  87.8986 355.8126 0001559  93.0948 267.0360 13.13470947230169
ONEWEB-0178             
1 48075U 21025AK  25354.02307130 -.00000120  00000+0 -36303-3 0  9991
2 48075  87.8972 355.8643 0001591  81.0361 279.0948 13.13470545230205
ONEWEB-0108             
1 48076U 21025AL  25354.05849572  .00000005  00000+0 -21727-4 0  9992
2 48076  87.8982 355.8066 0001919  94.9645 265.1704 13.13471869230136
ONEWEB-0169             
1 48077U 21025AM  25354.01447728  .00000101  00000+0  24301-3 0  9992
2 48077  87.8978 355.8360 0001888  95.1411 264.9934 13.13468421228788
ONEWEB-0176             
1 48210U 21031A   25353.99771960  .00000233  00000+0  59524-3 0  9993
2 48210  87.8995 325.4011 0001772  81.2186 278.9145 13.14500254224775
ONEWEB-0184             
1 48211U 21031B   25353.89464667  .00000023  00000+0  26520-4 0  9994
2 48211  87.9011 325.4025 0001987  55.1391 304.9926 13.14503298224731
ONEWEB-0179             
1 48212U 21031C   25353.94143419 -.00000117  00000+0 -35006-3 0  9994
2 48212  87.9006 325.4015 0001577  89.0263 271.1048 13.14502607224782
ONEWEB-0180             
1 48213U 21031D   25354.20228797 -.00000030  00000+0 -11657-3 0  9998
2 48213  87.9007 325.3475 0001491  78.2781 281.8516 13.14504112224706
ONEWEB-0218             
1 48214U 21031E   25354.22449701  .00000291  00000+0  74929-3 0  9999
2 48214  87.9007 325.3437 0001705  53.1594 306.9692 13.14503793224862
